COMMENT,ORIGINATOR,NORAD_CAT_ID,OBJECT_NAME,OBJECT_TYPE,CLASSIFICATION_TYPE,INTLDES,EPOCH,EPOCH_MICROSECONDS,MEAN_MOTION,ECCENTRICITY,INCLINATION,RA_OF_ASC_NODE,ARG_OF_PERICENTER,MEAN_ANOMALY,EPHEMERIS_TYPE,ELEMENT_SET_NO,REV_AT_EPOCH,BSTAR,MEAN_MOTION_DOT,MEAN_MOTION_DDOT,FILE,TLE_LINE0,TLE_LINE1,TLE_LINE2,OBJECT_ID,OBJECT_NUMBER,SEMIMAJOR_AXIS,PERIOD,APOGEE,PERIGEE,DECAYED
"GENERATED VIA SPACETRACK.ORG API","18 SPCS","55087","SPACEBEE-167","PAYLOAD","U","23001CG","2023-05-20 21:26:46","633056","15.18624992","0.0016469","97.4787","201.1933","100.5819","259.7271","0","999","2095","0.00099931","0.00020732","0","3913175","0 SPACEBEE-167","1 55087U 23001CG  23140.89359529  .00020732  00000-0  99931-3 0  9999","2 55087  97.4787 201.1933 0016469 100.5819 259.7271 15.18624992 20954","2023-001CG","55087","6888.132","94.823","521.341","498.653","0"
"GENERATED VIA SPACETRACK.ORG API","18 SPCS","55087","SPACEBEE-167","PAYLOAD","U","23001CG","2023-05-21 03:46:18","502176","15.18634906","0.0016486","97.4785","201.454","99.7254","260.5842","0","999","2099","0.00093701","0.00019437","0","3913738","0 SPACEBEE-167","1 55087U 23001CG  23141.15715859  .00019437  00000-0  93701-3 0  9990","2 55087  97.4785 201.4540 0016486  99.7254 260.5842 15.18634906 20994","2023-001CG","55087","6888.102","94.822","521.323","498.612","0"
"GENERATED VIA SPACETRACK.ORG API","18 SPCS","55087","SPACEBEE-167","PAYLOAD","U","23001CG","2023-05-21 16:25:21","785952","15.18653632","0.0016448","97.4782","201.9755","98.1897","262.1204","0","999","2107","0.00084208","0.00017466","0","3914061","0 SPACEBEE-167","1 55087U 23001CG  23141.68427993  .00017466  00000-0  84208-3 0  9999","2 55087  97.4782 201.9755 0016448  98.1897 262.1204 15.18653632 21075","2023-001CG","55087","6888.046","94.821","521.240","498.581","0"
"GENERATED VIA SPACETRACK.ORG API","18 SPCS","55087","SPACEBEE-167","PAYLOAD","U","23001CG","2023-05-22 09:49:02","892000","15.18682853","0.0016388","97.4776","202.6929","95.9754","264.3348","0","999","2118","0.0010037","0.00020858","0","3914655","0 SPACEBEE-167","1 55087U 23001CG  23142.40906125  .00020858  00000-0  10037-2 0  9996","2 55087  97.4776 202.6929 0016388  95.9754 264.3348 15.18682853 21181","2023-001CG","55087","6887.957","94.819","521.110","498.534","0"
"GENERATED VIA SPACETRACK.ORG API","18 SPCS","55087","SPACEBEE-167","PAYLOAD","U","23001CG","2023-05-22 11:23:55","708512","15.18680309","0.0016376","97.4779","202.7578","95.6225","264.6877","0","999","2119","0.00082762","0.00017177","0","3914693","0 SPACEBEE-167","1 55087U 23001CG  23142.47495033  .00017177  00000-0  82762-3 0  9999","2 55087  97.4779 202.7578 0016376  95.6225 264.6877 15.18680309 21197","2023-001CG","55087","6887.965","94.819","521.110","498.550","0"
"GENERATED VIA SPACETRACK.ORG API","18 SPCS","55087","SPACEBEE-167","PAYLOAD","U","23001CG","2023-05-22 16:08:34","3392","15.18687327","0.0016317","97.4778","202.9534","94.9462","265.3635","0","999","2122","0.00083315","0.00017295","0","3914964","0 SPACEBEE-167","1 55087U 23001CG  23142.67261578  .00017295  00000-0  83315-3 0  9992","2 55087  97.4778 202.9534 0016317  94.9462 265.3635 15.18687327 21221","2023-001CG","55087","6887.944","94.819","521.048","498.570","0"
"GENERATED VIA SPACETRACK.ORG API","18 SPCS","55087","SPACEBEE-167","PAYLOAD","U","23001CG","2023-05-23 03:12:43","89120","15.18702373","0.0016286","97.4776","203.4096","93.4388","266.8709","0","999","2129","0.00081953","0.00017018","0","3915235","0 SPACEBEE-167","1 55087U 23001CG  23143.13383205  .00017018  00000-0  81953-3 0  9995","2 55087  97.4776 203.4096 0016286  93.4388 266.8709 15.18702373 21298","2023-001CG","55087","6887.898","94.818","520.981","498.546","0"
"GENERATED VIA SPACETRACK.ORG API","18 SPCS","55087","SPACEBEE-167","PAYLOAD","U","23001CG","2023-05-23 22:11:14","947584","15.18724319","0.0016218","97.4777","204.192","90.7697","269.5396","0","999","2141","0.00072837","0.00015123","0","3915766","0 SPACEBEE-167","1 55087U 23001CG  23143.92447856  .00015123  00000-0  72837-3 0  9991","2 55087  97.4777 204.1920 0016218  90.7697 269.5396 15.18724319 21411","2023-001CG","55087","6887.832","94.816","520.868","498.526","0"
"GENERATED VIA SPACETRACK.ORG API","18 SPCS","55087","SPACEBEE-167","PAYLOAD","U","23001CG","2023-05-24 15:34:53","163552","15.18746855","0.0016192","97.4777","204.9091","88.4303","271.8786","0","999","2152","0.00071712","0.00014897","0","3916530","0 SPACEBEE-167","1 55087U 23001CG  23144.64922643  .00014897  00000-0  71712-3 0  9991","2 55087  97.4777 204.9091 0016192  88.4303 271.8786 15.18746855 21527","2023-001CG","55087","6887.764","94.815","520.781","498.476","0"
"GENERATED VIA SPACETRACK.ORG API","18 SPCS","55087","SPACEBEE-167","PAYLOAD","U","23001CG","2023-05-24 15:34:53","163552","15.18746855","0.0016192","97.4777","204.9091","88.4303","271.8786","0","999","2152","0.00071712","0.00014897","0","3916549","0 SPACEBEE-167","1 55087U 23001CG  23144.64922643  .00014897  00000-0  71712-3 0  9991","2 55087  97.4777 204.9091 0016192  88.4303 271.8786 15.18746855 21527","2023-001CG","55087","6887.764","94.815","520.781","498.476","0"
"GENERATED VIA SPACETRACK.ORG API","18 SPCS","55087","SPACEBEE-167","PAYLOAD","U","23001CG","2023-05-25 16:52:52","637664","15.18778279","0.0016126","97.4779","205.9525","85.6529","274.6547","0","999","2168","0.00072334","0.0001504","0","3917108","0 SPACEBEE-167","1 55087U 23001CG  23145.70338701  .00015040  00000-0  72334-3 0  9997","2 55087  97.4779 205.9525 0016126  85.6529 274.6547 15.18778279 21686","2023-001CG","55087","6887.669","94.813","520.641","498.427","0"
"GENERATED VIA SPACETRACK.ORG API","18 SPCS","55087","SPACEBEE-167","PAYLOAD","U","23001CG","2023-05-25 16:52:52","637664","15.18778279","0.0016126","97.4779","205.9525","85.6529","274.6547","0","999","2168","0.00072334","0.0001504","0","3917122","0 SPACEBEE-167","1 55087U 23001CG  23145.70338701  .00015040  00000-0  72334-3 0  9997","2 55087  97.4779 205.9525 0016126  85.6529 274.6547 15.18778279 21686","2023-001CG","55087","6887.669","94.813","520.641","498.427","0"
"GENERATED VIA SPACETRACK.ORG API","18 SPCS","55087","SPACEBEE-167","PAYLOAD","U","23001CG","2023-05-26 03:56:59","380224","15.18788934","0.0016156","97.4781","206.4091","84.0889","276.2186","0","999","2175","0.00061986","0.00012879","0","3917630","0 SPACEBEE-167","1 55087U 23001CG  23146.16457616  .00012879  00000-0  61986-3 0  9993","2 55087  97.4781 206.4091 0016156  84.0889 276.2186 15.18788934 21752","2023-001CG","55087","6887.637","94.812","520.629","498.374","0"
"GENERATED VIA SPACETRACK.ORG API","18 SPCS","55087","SPACEBEE-167","PAYLOAD","U","23001CG","2023-05-26 16:35:58","107264","15.18802642","0.0016161","97.478","206.9307","82.4173","277.8897","0","999","2183","0.0006007","0.00012483","0","3917850","0 SPACEBEE-167","1 55087U 23001CG  23146.69164476  .00012483  00000-0  60070-3 0  9994","2 55087  97.4780 206.9307 0016161  82.4173 277.8897 15.18802642 21838","2023-001CG","55087","6887.595","94.812","520.591","498.329","0"
"GENERATED VIA SPACETRACK.ORG API","18 SPCS","55087","SPACEBEE-167","PAYLOAD","U","23001CG","2023-05-27 03:40:04","171584","15.18812822","0.0016165","97.478","207.387","80.9897","279.3166","0","999","2190","0.0005264","0.00010932","0","3918179","0 SPACEBEE-167","1 55087U 23001CG  23147.15282606  .00010932  00000-0  52640-3 0  9993","2 55087  97.4780 207.3870 0016165  80.9897 279.3166 15.18812822 21903","2023-001CG","55087","6887.564","94.811","520.563","498.296","0"
"GENERATED VIA SPACETRACK.ORG API","18 SPCS","55087","SPACEBEE-167","PAYLOAD","U","23001CG","2023-05-27 16:19:02","210016","15.18824493","0.0016095","97.4779","207.9085","79.3648","280.9398","0","999","2198","0.00052051","0.00010812","0","3918755","0 SPACEBEE-167","1 55087U 23001CG  23147.67988669  .00010812  00000-0  52051-3 0  9995","2 55087  97.4779 207.9085 0016095  79.3648 280.9398 15.18824493 21983","2023-001CG","55087","6887.529","94.810","520.480","498.309","0"
"GENERATED VIA SPACETRACK.ORG API","18 SPCS","55087","SPACEBEE-167","PAYLOAD","U","23001CG","2023-05-28 03:23:07","710144","15.1883445","0.0016028","97.4778","208.3648","77.8188","282.484","0","999","2205","0.00050564","0.00010503","0","3919252","0 SPACEBEE-167","1 55087U 23001CG  23148.14106146  .00010503  00000-0  50564-3 0  9994","2 55087  97.4778 208.3648 0016028  77.8188 282.4840 15.18834450 22052","2023-001CG","55087","6887.499","94.810","520.403","498.325","0"
"GENERATED VIA SPACETRACK.ORG API","18 SPCS","55087","SPACEBEE-167","PAYLOAD","U","23001CG","2023-05-28 09:42:36","403200","15.18842219","0.0015968","97.4779","208.6256","76.9036","283.398","0","999","2209","0.00058683","0.00012206","0","3919240","0 SPACEBEE-167","1 55087U 23001CG  23148.40458800  .00012206  00000-0  58683-3 0  9992","2 55087  97.4779 208.6256 0015968  76.9036 283.3980 15.18842219 22096","2023-001CG","55087","6887.476","94.809","520.338","498.343","0"
"GENERATED VIA SPACETRACK.ORG API","18 SPCS","55087","SPACEBEE-167","PAYLOAD","U","23001CG","2023-05-28 17:36:57","141216","15.18852719","0.0015941","97.4778","208.9514","75.9501","284.3504","0","999","2214","0.00067491","0.00014056","0","3919546","0 SPACEBEE-167","1 55087U 23001CG  23148.73399469  .00014056  00000-0  67491-3 0  9995","2 55087  97.4778 208.9514 0015941  75.9501 284.3504 15.18852719 22147","2023-001CG","55087","6887.444","94.808","520.288","498.329","0"
"GENERATED VIA SPACETRACK.ORG API","18 SPCS","55087","SPACEBEE-167","PAYLOAD","U","23001CG","2023-05-29 09:25:38","116992","15.18868935","0.0015859","97.4779","209.6035","73.727","286.5708","0","999","2224","0.00063741","0.00013276","0","3920065","0 SPACEBEE-167","1 55087U 23001CG  23149.39280228  .00013276  00000-0  63741-3 0  9997","2 55087  97.4779 209.6035 0015859  73.7270 286.5708 15.18868935 22249","2023-001CG","55087","6887.395","94.807","520.182","498.337","0"
